OBJECT_NAME,OBJECT_ID,EPOCH,MEAN_MOTION,ECCENTRICITY,INCLINATION,RA_OF_ASC_NODE,ARG_OF_PERICENTER,MEAN_ANOMALY,EPHEMERIS_TYPE,CLASSIFICATION_TYPE,NORAD_CAT_ID,ELEMENT_SET_NO,REV_AT_EPOCH,BSTAR,MEAN_MOTION_DOT,MEAN_MOTION_DDOT
SKYSAT-C1,2016-040C,2026-06-25T00:46:17.508576,15.36420055,.00027519,96.9566,207.3269,42.5631,317.5827,0,U,41601,999,55907,.28038387E-3,.9889E-4,0
LAPAN-A3,2016-040E,2026-06-25T06:49:37.040736,15.33152345,.00098558,97.1489,172.1639,357.7807,2.3390,0,U,41603,999,55605,.12601442E-3,.3966E-4,0
GAOFEN-3,2016-049A,2026-06-25T06:29:38.225184,14.42216336,.00015717,98.4016,183.9347,97.6337,262.5031,0,U,41727,999,51981,.18926158E-4,.19E-6,0
SKYSAT-C4,2016-058B,2026-06-25T00:30:24.975360,15.48811540,.00019383,96.9176,197.4653,139.7950,220.3446,0,U,41771,999,54668,.34275458E-3,.18357E-3,0
SKYSAT-C5,2016-058C,2026-06-25T01:25:41.317536,15.34570645,.00010469,97.0471,216.3485,233.3226,126.7922,0,U,41772,999,54495,.24544484E-3,.8147E-4,0
SKYSAT-C2,2016-058D,2026-06-25T07:19:44.489856,15.42240769,.00040105,97.0170,198.0950,53.2233,306.9383,0,U,41773,999,54630,.34387561E-3,.14708E-3,0
SKYSAT-C3,2016-058E,2026-06-25T01:41:22.215264,15.52850947,.00012367,96.9009,206.6140,114.3829,245.7554,0,U,41774,999,54733,.41169727E-3,.25486E-3,0
ALSAT-1B,2016-059C,2026-06-25T06:14:10.798944,14.72280255,.00087054,97.7754,184.6755,191.4874,168.6137,0,U,41785,999,52176,.74191868E-4,.422E-5,0
PATHFINDER 1,2016-059E,2026-06-25T07:37:32.520864,14.67671314,.00284797,97.8166,175.2271,177.3779,182.7581,0,U,41787,999,52090,.10448295E-3,.551E-5,0
SCATSAT 1,2016-059H,2026-06-25T04:38:48.449184,14.79541526,.00537416,98.1187,240.0424,221.1538,138.5615,0,U,41790,999,10277,.15480544E-3,.1129E-4,0
GOKTURK 1A,2016-073A,2026-06-25T05:58:32.926944,14.62779653,.00014301,98.1243,70.7966,75.4159,284.7201,0,U,41875,999,51000,.86101181E-4,.392E-5,0
RESOURCESAT-2A,2016-074A,2026-06-25T07:19:55.039296,14.21618850,.0003222,98.7524,249.7437,68.8639,291.2883,0,U,41877,999,49545,.37900322E-4,.39E-6,0
CARTOSAT-2D,2017-008A,2026-06-25T06:14:06.356256,15.19259452,.00045435,97.4105,235.4151,199.6706,160.4354,0,U,41948,999,51880,.1842045E-3,.3816E-4,0
SENTINEL-2B,2017-013A,2026-06-25T07:39:54.189216,14.30818944,.00011775,98.5689,250.9792,87.8036,272.3282,0,U,42063,999,48580,.31690354E-4,.39E-6,0
CARTOSAT-2E,2017-036C,2026-06-25T08:14:21.490656,15.19220759,.00021869,97.4275,236.0115,281.4839,78.6150,0,U,42767,999,49938,.13133019E-3,.2698E-4,0
FORMOSAT-5,2017-049A,2026-06-25T06:13:43.347072,14.50901422,.00124914,98.2252,251.3899,61.9672,298.2785,0,U,42920,999,46784,.4326181E-4,.127E-5,0
SENTINEL-5P,2017-064A,2026-06-24T14:28:11.265888,14.19520089,.00009963,98.7925,117.6816,88.6862,271.4428,0,U,42969,999,45061,.35782275E-4,.31E-6,0
SKYSAT-C11,2017-068A,2026-06-25T05:07:49.030752,15.58280009,.00004655,97.4351,325.3965,119.3250,240.8053,0,U,42987,999,48449,.43494472E-3,.32896E-3,0
SKYSAT-C10,2017-068B,2026-06-24T15:50:37.773024,15.34747943,.00011566,97.4508,312.5809,104.1677,255.9695,0,U,42988,999,48350,.26547966E-3,.8862E-4,0
SKYSAT-C9,2017-068C,2026-06-25T06:54:03.126816,15.41746317,.00095764,97.4428,314.2268,107.7457,252.4836,0,U,42989,999,48400,.35703834E-3,.15037E-3,0
SKYSAT-C8,2017-068D,2026-06-24T08:37:59.698272,15.37097162,.00013797,97.4524,312.1047,95.7824,264.3578,0,U,42990,999,48341,.25204822E-3,.9069E-4,0
SKYSAT-C7,2017-068E,2026-06-25T04:47:49.867872,15.37070823,.00071026,97.4535,313.9462,83.4452,276.7600,0,U,42991,999,48360,.33177874E-3,.11967E-3,0
SKYSAT-C6,2017-068F,2026-06-25T07:11:31.110432,15.34091293,.00051335,97.4570,313.9863,128.7652,231.4050,0,U,42992,999,48356,.31424098E-3,.10293E-3,0
CARTOSAT-2F,2018-004A,2026-06-25T05:51:13.542336,15.19271177,.00015687,97.4786,235.8003,175.2441,184.8808,0,U,43111,999,46855,.26509135E-3,.5523E-4,0
GAOFEN-1 02,2018-031A,2026-06-25T07:05:31.801344,14.76418483,.00030679,98.0525,238.7999,11.4102,348.7177,0,U,43259,999,44389,.1002924E-3,.646E-5,0
GAOFEN-1 03,2018-031B,2026-06-25T00:03:33.749280,14.76433937,.0003706,98.0515,238.3654,63.6994,296.4595,0,U,43260,999,44384,.22651241E-4,.106E-5,0
GAOFEN-1 04,2018-031D,2026-06-25T07:36:41.696064,14.76442204,.00020486,98.0526,238.8707,67.1109,293.0317,0,U,43262,999,44388,.29742331E-4,.155E-5,0
SENTINEL-3B,2018-039A,2026-06-25T04:25:42.507264,14.26736833,.00007355,98.6245,243.6020,104.6006,255.5256,0,U,43437,999,42526,.5747101E-4,.95E-6,0
GAOFEN-5 01,2018-043A,2026-06-24T22:33:19.245312,14.60610186,.00029325,98.4572,147.6889,69.8088,290.3427,0,U,43461,999,43282,.71183791E-4,.297E-5,0
GAOFEN-6,2018-048A,2026-06-25T06:30:00.402336,14.76428270,.00115428,98.0451,238.9314,139.2781,220.9293,0,U,43484,999,43458,.34259828E-4,.186E-5,0
